
 1 90024U RELEAS14 00051.03935584 +.00001327  00000 0  00000 0 4 0882                                                                                                                                                                                                                                                                                                                                                                                                                                                           
 2 90024  64.7717 195.4038 6033327 269.3020  18.6110  2.0061535803847                                                                                                                                                                                                                                                                                                                                                                                                                                                           

         0.0000000        2.0061545        0.6033327       64.7717000      195.4038000      269.3020000       18.6110000
      2700.0000000        2.0061869        0.6032937       64.7766252      195.2683183      269.2704643      292.7465350
      5400.0000000        2.0062193        0.6032676       64.7789154      195.1337997      269.2379628      206.9017505
      8100.0000000        2.0062516        0.6032504       64.7789519      194.9993783      269.2071384      121.0783969
     10800.0000000        2.0062840        0.6032359       64.7783372      194.8647471      269.1789617       35.2776326
     13500.0000000        2.0063162        0.6032213       64.7787013      194.7299363      269.1528446      309.4997202
     16200.0000000        2.0063484        0.6032060       64.7810435      194.5950796      269.1272409      223.7441884
     18900.0000000        2.0063806        0.6031900       64.7853516      194.4603421      269.1002233      138.0101315
     21600.0000000        2.0064126        0.6031744       64.7903991      194.3259042      269.0702555       52.2967290
     24300.0000000        2.0064446        0.6031634       64.7941479      194.1918070      269.0372736      326.6039809
     27000.0000000        2.0064766        0.6031635       64.7951025      194.0576054      269.0033143      240.9330428
     29700.0000000        2.0065084        0.6031747       64.7937503      193.9223495      268.9714297      155.2854679
     32400.0000000        2.0065402        0.6031831       64.7924772      193.7854446      268.9431490       69.6618197
     35100.0000000        2.0065718        0.6031708       64.7937020      193.6476274      268.9168381      344.0609418
     37800.0000000        2.0066034        0.6031366       64.7977718      193.5105812      268.8889336      258.4805601
     40500.0000000        2.0066348        0.6030981       64.8025693      193.3753108      268.8572589      172.9188736
     43200.0000000        2.0066661        0.6030713       64.8054499      193.2413441      268.8229837       87.3758320


 1 90025U RELEAS14 00051.03935584 +.00001327  00000 0  00000 0 4 0882                                                                                                                                                                                                                                                                                                                                                                                                                                                           
 2 90025  64.7717 195.4038 6833327 269.3020  18.6110  2.0061535803847                                                                                                                                                                                                                                                                                                                                                                                                                                                           

         0.0000000        2.0061545        0.6833327       64.7717000      195.4038000      269.3020000       18.6110000
      2700.0000000        2.0061988        0.6832907       64.7766472      195.2112111      269.2658362      292.7354583
      5400.0000000        2.0062431        0.6832616       64.7791842      195.0199624      269.2285677      206.8877390
      8100.0000000        2.0062874        0.6832428       64.7796561      194.8289123      269.1927780      121.0693162
     10800.0000000        2.0063317        0.6832282       64.7795370      194.6376004      269.1594464       35.2812367
     13500.0000000        2.0063759        0.6832137       64.7803273      194.4460469      269.1280321      309.5238312
     16200.0000000        2.0064201        0.6831982       64.7829409      194.2544650      269.0970579      223.7968199
     18900.0000000        2.0064643        0.6831820       64.7873510      194.0631196      269.0646890      138.0995403
     21600.0000000        2.0065084        0.6831676       64.7924112      193.8722245      269.0295033       52.4313636
     24300.0000000        2.0065524        0.6831604       64.7962453      193.6817023      268.9915347      326.7922928
     27000.0000000        2.0065964        0.6831655       64.7975047      193.4908407      268.9528239      241.1832438
     29700.0000000        2.0066402        0.6831803       64.7966742      193.2984521      268.9162921      155.6054417
     32400.0000000        2.0066840        0.6831897       64.7959570      193.1039761      268.8832784       70.0593086
     35100.0000000        2.0067277        0.6831773       64.7975483      192.9085056      268.8520435      344.5438634
     37800.0000000        2.0067712        0.6831433       64.8017226      192.7141553      268.8190763      259.0571780
     40500.0000000        2.0068146        0.6831055       64.8065069      192.5220930      268.7823304      173.5976629
     43200.0000000        2.0068579        0.6830795       64.8094824      192.3316620      268.7430391       88.1651529


 1 90026U RELEAS14 00051.03935584 +.00001327  00000 0  00000 0 4 0882                                                                                                                                                                                                                                                                                                                                                                                                                                                           
 2 90026  64.7717 195.4038 7233327 269.3020  18.6110  2.0061535803847                                                                                                                                                                                                                                                                                                                                                                                                                                                           

         0.0000000        2.0061545        0.7233327       64.7717000      195.4038000      269.3020000       18.6110000
      2700.0000000        2.0062080        0.7232900       64.7767556      195.1633953      269.2614743      292.7263181
      5400.0000000        2.0062615        0.7232600       64.7795322      194.9245914      269.2197472      206.8757321
      8100.0000000        2.0063151        0.7232408       64.7803553      194.6860578      269.1793802      121.0605757
     10800.0000000        2.0063686        0.7232264       64.7806247      194.4472271      269.1413616       35.2818453
     13500.0000000        2.0064222        0.7232124       64.7817649      194.2081173      269.1051729      309.5399191
     16200.0000000        2.0064757        0.7231971       64.7846384      193.9690057      269.0693677      223.8346307
     18900.0000000        2.0065292        0.7231814       64.7892072      193.7302307      269.0321592      138.1654587
     21600.0000000        2.0065827        0.7231685       64.7943698      193.4920202      268.9921975       52.5318849
     24300.0000000        2.0066361        0.7231640       64.7983445      193.2541889      268.9495927      326.9339200
     27000.0000000        2.0066895        0.7231724       64.7998720      193.0158198      268.9064086      241.3723558
     29700.0000000        2.0067427        0.7231895       64.7994396      192.7755753      268.8654918      155.8482504
     32400.0000000        2.0067959        0.7231996       64.7991467      192.5329653      268.8280431       70.3619660
     35100.0000000        2.0068490        0.7231875       64.8010559      192.2893633      268.7922242      344.9126332
     37800.0000000        2.0069019        0.7231547       64.8053933      192.0471680      268.7545376      259.4985193
     40500.0000000        2.0069547        0.7231188       64.8102630      191.8076083      268.7130368      174.1181453
     43200.0000000        2.0070074        0.7230951       64.8133780      191.5698549      268.6690348       88.7712757

